{
  "type": "FeatureCollection",
  "features": [
    {
      "type": "Feature",
      "properties": {
        "norad_id": 66809,
        "name": "STARLINK-35979",
        "group": "last-30-days",
        "lat": -33.507687827083096,
        "lon": -164.02161812292417,
        "alt_km": 302.8736430590343,
        "timestamp": "2025-12-14T11:29:48.799350+00:00",
        "meta_object_name": "STARLINK-35979",
        "meta_object_id": "2025-278U",
        "meta_epoch": "2025-12-13T14:35:43.976832",
        "meta_mean_motion": 15.87786553,
        "meta_eccentricity": 0.0014184,
        "meta_inclination": 42.9962,
        "meta_ra_of_asc_node": 246.653,
        "meta_arg_of_pericenter": 245.6682,
        "meta_mean_anomaly": 114.2711,
        "meta_ephemeris_type": 0,
        "meta_classification_type": "U",
        "meta_norad_cat_id": 66809,
        "meta_element_set_no": 999,
        "meta_rev_at_epoch": 197,
        "meta_bstar": 0.0022005782,
        "meta_mean_motion_dot": 0.00663007,
        "meta_mean_motion_ddot": 0,
        "tle_line1": "1 66809U 25278U   25347.60814788  .00663007  00000+0  22006-2 0  9999",
        "tle_line2": "2 66809  42.9962 246.6530 0014184 245.6682 114.2711 15.87786553  1979"
      },
      "geometry": {
        "type": "Point",
        "coordinates": [
          -164.02161812292417,
          -33.507687827083096
        ]
      }
    },
    {
      "type": "Feature",
      "properties": {
        "norad_id": 66810,
        "name": "STARLINK-36046",
        "group": "last-30-days",
        "lat": -25.59730822203823,
        "lon": -149.71562107571376,
        "alt_km": 297.853340396422,
        "timestamp": "2025-12-14T11:29:48.799360+00:00",
        "meta_object_name": "STARLINK-36046",
        "meta_object_id": "2025-278V",
        "meta_epoch": "2025-12-13T01:00:19.749600",
        "meta_mean_motion": 15.89788073,
        "meta_eccentricity": 0.00029914,
        "meta_inclination": 42.9974,
        "meta_ra_of_asc_node": 250.1521,
        "meta_arg_of_pericenter": 285.6834,
        "meta_mean_anomaly": 74.371,
        "meta_ephemeris_type": 0,
        "meta_classification_type": "U",
        "meta_norad_cat_id": 66810,
        "meta_element_set_no": 999,
        "meta_rev_at_epoch": 188,
        "meta_bstar": 0.0022644771,
        "meta_mean_motion_dot": 0.00758232,
        "meta_mean_motion_ddot": 0,
        "tle_line1": "1 66810U 25278V   25347.04189525  .00758232  00000+0  22645-2 0  9997",
        "tle_line2": "2 66810  42.9974 250.1521 0002991 285.6834  74.3710 15.89788073  1886"
      },
      "geometry": {
        "type": "Point",
        "coordinates": [
          -149.71562107571376,
          -25.59730822203823
        ]
      }
    },
    {
      "type": "Feature",
      "properties": {
        "norad_id": 66811,
        "name": "STARLINK-36045",
        "group": "last-30-days",
        "lat": -15.052037164929047,
        "lon": -135.58551443343995,
        "alt_km": 276.0047541773638,
        "timestamp": "2025-12-14T11:29:48.799370+00:00",
        "meta_object_name": "STARLINK-36045",
        "meta_object_id": "2025-278W",
        "meta_epoch": "2025-12-13T01:00:27.694944",
        "meta_mean_motion": 15.89484454,
        "meta_eccentricity": 0.00029504,
        "meta_inclination": 42.997,
        "meta_ra_of_asc_node": 250.1519,
        "meta_arg_of_pericenter": 282.9701,
        "meta_mean_anomaly": 77.0844,
        "meta_ephemeris_type": 0,
        "meta_classification_type": "U",
        "meta_norad_cat_id": 66811,
        "meta_element_set_no": 999,
        "meta_rev_at_epoch": 188,
        "meta_bstar": 0.0092253817,
        "meta_mean_motion_dot": 0.03295879,
        "meta_mean_motion_ddot": 0,
        "tle_line1": "1 66811U 25278W   25347.04198721  .03295879  00000+0  92254-2 0  9995",
        "tle_line2": "2 66811  42.9970 250.1519 0002950 282.9701  77.0844 15.89484454  1882"
      },
      "geometry": {
        "type": "Point",
        "coordinates": [
          -135.58551443343995,
          -15.052037164929047
        ]
      }
    },
    {
      "type": "Feature",
      "properties": {
        "norad_id": 66812,
        "name": "STARLINK-36054",
        "group": "last-30-days",
        "lat": -32.184863328693154,
        "lon": -161.23569068957121,
        "alt_km": 299.9792866877697,
        "timestamp": "2025-12-14T11:29:48.799380+00:00",
        "meta_object_name": "STARLINK-36054",
        "meta_object_id": "2025-278X",
        "meta_epoch": "2025-12-13T14:35:08.624544",
        "meta_mean_motion": 15.87959476,
        "meta_eccentricity": 0.00150483,
        "meta_inclination": 42.9965,
        "meta_ra_of_asc_node": 246.6502,
        "meta_arg_of_pericenter": 267.6271,
        "meta_mean_anomaly": 92.288,
        "meta_ephemeris_type": 0,
        "meta_classification_type": "U",
        "meta_norad_cat_id": 66812,
        "meta_element_set_no": 999,
        "meta_rev_at_epoch": 197,
        "meta_bstar": 0.002010288,
        "meta_mean_motion_dot": 0.00565966,
        "meta_mean_motion_ddot": 0.00012700597,
        "tle_line1": "1 66812U 25278X   25347.60773871  .00565966  12701-3  20103-2 0  9996",
        "tle_line2": "2 66812  42.9965 246.6502 0015048 267.6271  92.2880 15.87959476  1971"
      },
      "geometry": {
        "type": "Point",
        "coordinates": [
          -161.23569068957121,
          -32.184863328693154
        ]
      }
    },
    {
      "type": "Feature",
      "properties": {
        "norad_id": 66813,
        "name": "STARLINK-36042",
        "group": "last-30-days",
        "lat": -36.270014612730975,
        "lon": -170.67694602384586,
        "alt_km": 315.7877396885615,
        "timestamp": "2025-12-14T11:29:48.799392+00:00",
        "meta_object_name": "STARLINK-36042",
        "meta_object_id": "2025-278Y",
        "meta_epoch": "2025-12-13T02:29:58.694784",
        "meta_mean_motion": 15.86566064,
        "meta_eccentricity": 0.00031581,
        "meta_inclination": 42.9975,
        "meta_ra_of_asc_node": 249.7571,
        "meta_arg_of_pericenter": 285.3486,
        "meta_mean_anomaly": 74.7038,
        "meta_ephemeris_type": 0,
        "meta_classification_type": "U",
        "meta_norad_cat_id": 66813,
        "meta_element_set_no": 999,
        "meta_rev_at_epoch": 189,
        "meta_bstar": -0.0015776511,
        "meta_mean_motion_dot": -0.00395955,
        "meta_mean_motion_ddot": 0,
        "tle_line1": "1 66813U 25278Y   25347.10415156 -.00395955  00000+0 -15777-2 0  9998",
        "tle_line2": "2 66813  42.9975 249.7571 0003158 285.3486  74.7038 15.86566064  1894"
      },
      "geometry": {
        "type": "Point",
        "coordinates": [
          -170.67694602384586,
          -36.270014612730975
        ]
      }
    },
    {
      "type": "Feature",
      "properties": {
        "norad_id": 66814,
        "name": "STARLINK-35984",
        "group": "last-30-days",
        "lat": -17.96689129529625,
        "lon": -139.17769547695303,
        "alt_km": 307.84131957259524,
        "timestamp": "2025-12-14T11:29:48.799407+00:00",
        "meta_object_name": "STARLINK-35984",
        "meta_object_id": "2025-278Z",
        "meta_epoch": "2025-12-12T05:17:39.039072",
        "meta_mean_motion": 15.89263924,
        "meta_eccentricity": 0.00022268,
        "meta_inclination": 42.9971,
        "meta_ra_of_asc_node": 255.1754,
        "meta_arg_of_pericenter": 272.7868,
        "meta_mean_anomaly": 87.2751,
        "meta_ephemeris_type": 0,
        "meta_classification_type": "U",
        "meta_norad_cat_id": 66814,
        "meta_element_set_no": 999,
        "meta_rev_at_epoch": 175,
        "meta_bstar": -0.00078876214,
        "meta_mean_motion_dot": -0.00230906,
        "meta_mean_motion_ddot": 0,
        "tle_line1": "1 66814U 25278Z   25346.22059073 -.00230906  00000+0 -78876-3 0  9997",
        "tle_line2": "2 66814  42.9971 255.1754 0002226 272.7868  87.2751 15.89263924  1752"
      },
      "geometry": {
        "type": "Point",
        "coordinates": [
          -139.17769547695303,
          -17.96689129529625
        ]
      }
    },
    {
      "type": "Feature",
      "properties": {
        "norad_id": 66815,
        "name": "STARLINK-35985",
        "group": "last-30-days",
        "lat": -7.380359121540847,
        "lon": -126.83928440026953,
        "alt_km": 288.0825583914866,
        "timestamp": "2025-12-14T11:29:48.799418+00:00",
        "meta_object_name": "STARLINK-35985",
        "meta_object_id": "2025-278AA",
        "meta_epoch": "2025-12-12T18:52:41.807136",
        "meta_mean_motion": 15.89981059,
        "meta_eccentricity": 0.00144492,
        "meta_inclination": 42.9985,
        "meta_ra_of_asc_node": 251.6744,
        "meta_arg_of_pericenter": 289.6758,
        "meta_mean_anomaly": 70.2558,
        "meta_ephemeris_type": 0,
        "meta_classification_type": "U",
        "meta_norad_cat_id": 66815,
        "meta_element_set_no": 999,
        "meta_rev_at_epoch": 305,
        "meta_bstar": 0.0028507856,
        "meta_mean_motion_dot": 0.00887373,
        "meta_mean_motion_ddot": 0.00032777577,
        "tle_line1": "1 66815U 25278AA  25346.78659499  .00887373  32778-3  28508-2 0  9998",
        "tle_line2": "2 66815  42.9985 251.6744 0014449 289.6758  70.2558 15.89981059  3051"
      },
      "geometry": {
        "type": "Point",
        "coordinates": [
          -126.83928440026953,
          -7.380359121540847
        ]
      }
    }
  ]
}